SPACEBEE-68             
1 48630U 21006EW  23081.11075507  .00310988  00000+0  35017-2 0  9996
2 48630  97.1595 126.7845 0003348 299.2820  60.8104 15.61535306119939
SPACEBEE-69             
1 48631U 21006EX  23081.07652058  .00276526  00000+0  33862-2 0  9999
2 48631  97.1615 126.5462 0003260 302.0050  58.0890 15.59440712119919
SPACEBEE-70             
1 48632U 21006EY  23081.08771042  .00256736  00000+0  33126-2 0  9990
2 48632  97.1616 126.3859 0003034 309.8324  50.2665 15.58113138119908
SPACEBEE-71             
1 48633U 21006EZ  23081.12051219  .00243411  00000+0  33459-2 0  9998
2 48633  97.1619 126.1847 0002588 320.5834  39.5232 15.56451295119891
SPACEBEE-72             
1 48634U 21006FA  23081.07315468  .00198250  00000+0  29864-2 0  9997
2 48634  97.1640 125.8164 0005120 316.4896  43.5954 15.54093317119869
SPACEBEE-73             
1 48635U 21006FB  23081.09326878  .00191914  00000+0  30474-2 0  9996
2 48635  97.1617 125.6465 0003913 333.5721  26.5332 15.52656347119857
SPACEBEE-74             
1 48636U 21006FC  23080.83546583  .00162093  00000+0  28751-2 0  9996
2 48636  97.1641 124.9558 0004802 345.1644  14.9466 15.49635997119786
SPACEBEE-75             
1 48637U 21006FD  23080.89290690  .00149923  00000+0  28184-2 0  9995
2 48637  97.1648 124.7256 0005092 347.0487  13.0632 15.48010782119777
STARLINK-2758           
1 48638U 21044A   23080.88213274  .00020108  00000+0  13655-2 0  9990
2 48638  53.0522 302.0207 0000785  71.2411 288.8663 15.06386216101324
STARLINK-2739           
1 48639U 21044B   23081.00007887  .00020477  00000+0  13900-2 0  9999
2 48639  53.0515 301.4960 0001251  82.5272 277.5859 15.06389385101349
STARLINK-2736           
1 48640U 21044C   23081.12637675  .00008581  00000+0  59431-3 0  9990
2 48640  53.0513 301.2083 0001018  78.3918 281.7185 15.06397442101290
STARLINK-2754           
1 48641U 21044D   23080.80706109  .00018404  00000+0  12514-2 0  9999
2 48641  53.0523 307.3608 0000810  59.0713 301.0355 15.06394672100342
STARLINK-2646           
1 48642U 21044E   23081.01990034  .00021492  00000+0  14574-2 0  9995
2 48642  53.0538 306.4039 0001345  80.6656 279.4484 15.06398883101213
STARLINK-2704           
1 48643U 21044F   23080.86877012  .00021712  00000+0  14722-2 0  9998
2 48643  53.0533 307.0687 0001054 108.5644 251.5460 15.06394798100359
STARLINK-2695           
1 48644U 21044G   23081.13140899  .00019829  00000+0  13470-2 0  9991
2 48644  53.0527 305.8983 0001408  97.0401 263.0749 15.06382045101232
STARLINK-2733           
1 48645U 21044H   23081.12773896  .00013488  00000+0  92273-3 0  9994
2 48645  53.0520 305.9237 0001185  87.5952 272.5172 15.06395982101291
STARLINK-2732           
1 48646U 21044J   23081.19039182  .00009964  00000+0  68684-3 0  9998
2 48646  53.0518 305.6407 0000974  89.8470 270.2631 15.06401951101301
STARLINK-2691           
1 48647U 21044K   23081.18670948  .00027069  00000+0  18285-2 0  9996
2 48647  53.0524 305.6577 0001133  77.0734 283.0382 15.06413889101305
STARLINK-2521           
1 48648U 21044L   23080.86973171  .00022817  00000+0  15459-2 0  9991
2 48648  53.0519 307.2449 0001454 148.1228 211.9849 15.06395926100353
STARLINK-2673           
1 48649U 21044M   23080.98397897  .00025123  00000+0  17013-2 0  9991
2 48649  53.0534 306.5671 0001226 111.9119 248.2000 15.06360950101200
STARLINK-2672           
1 48650U 21044N   23081.04665045  .00009850  00000+0  67905-3 0  9999
2 48650  53.0536 306.2805 0000920 100.5725 259.5368 15.06409661101213
STARLINK-2731           
1 48651U 21044P   23081.04294926  .00026179  00000+0  17708-2 0  9994
2 48651  53.0529 306.2998 0000998  66.5554 293.5540 15.06380917101217
STARLINK-2727           
1 48652U 21044Q   23081.03927573  .00007392  00000+0  51446-3 0  9999
2 48652  53.0539 306.3148 0000937  88.4259 271.6837 15.06410735101213
STARLINK-2720           
1 48653U 21044R   23081.03557430  .00023510  00000+0  15935-2 0  9993
2 48653  53.0530 306.3325 0001199  89.4919 270.6207 15.06364230101215
STARLINK-2651           
1 48654U 21044S   23081.03189868  .00020749  00000+0  14078-2 0  9998
2 48654  53.0521 306.3521 0000498  82.5364 277.5682 15.06397765101271
STARLINK-2657           
1 48655U 21044T   23081.02821181  .00019777  00000+0  13428-2 0  9996
2 48655  53.0518 306.3635 0001034  81.9103 278.2004 15.06402250101211
STARLINK-2701           
1 48656U 21044U   23080.89183254  .00025531  00000+0  17271-2 0  9998
2 48656  53.0520 306.9734 0001326  86.4442 273.6698 15.06391070100350
STARLINK-2734           
1 48657U 21044V   23080.88814596  .00005464  00000+0  38539-3 0  9992
2 48657  53.0546 306.9914 0001633 102.5194 257.5977 15.06405380100355
STARLINK-2647           
1 48658U 21044W   23080.88446804  .00023939  00000+0  16205-2 0  9998
2 48658  53.0536 307.0111 0001286  97.1963 262.9172 15.06400841100357
STARLINK-2717           
1 48659U 21044X   23080.88078616  .00022123  00000+0  14994-2 0  9998
2 48659  53.0522 307.0245 0001884  81.4689 278.6513 15.06401284100351
STARLINK-2688           
1 48660U 21044Y   23081.00979213  .00011761  00000+0  80750-3 0  9998
2 48660  53.0532 306.4457 0000865 156.3160 203.7869 15.06382121101213
STARLINK-2708           
1 48661U 21044Z   23080.94435743  .00014611  00000+0  99776-3 0  9991
2 48661  53.0524 296.7427 0001295  89.0000 271.1137 15.06400008101409
STARLINK-2726           
1 48662U 21044AA  23080.80796520  .00016723  00000+0  11392-2 0  9993
2 48662  53.0513 297.3571 0001920  54.8186 305.2982 15.06389017100485
STARLINK-2667           
1 48663U 21044AB  23081.00333487  .00017710  00000+0  12049-2 0  9993
2 48663  53.0520 296.4797 0001165  85.2401 274.8721 15.06398822101356
STARLINK-2709           
1 48664U 21044AC  23080.99963249  .00014454  00000+0  98648-3 0  9998
2 48664  53.0517 296.4964 0001003  91.9797 268.1307 15.06428037101417
STARLINK-2653           
1 48665U 21044AD  23080.88073103  .00022683  00000+0  15376-2 0  9997
2 48665  53.0542 297.0298 0000721  93.2497 266.8574 15.06379700100491
STARLINK-2666           
1 48666U 21044AE  23080.89280726  .00021397  00000+0  14510-2 0  9990
2 48666  53.0520 297.4483 0001154  84.1313 275.9808 15.06400379100482
STARLINK-2735           
1 48667U 21044AF  23080.86326760  .00024683  00000+0  16696-2 0  9995
2 48667  53.0519 297.1087 0001953  81.6916 278.4294 15.06412343100498
STARLINK-2738           
1 48668U 21044AG  23080.85958642  .00022099  00000+0  14974-2 0  9991
2 48668  53.0530 297.1230 0001594  90.1671 269.9500 15.06409934100493
STARLINK-2707           
1 48669U 21044AH  23081.18762876  .00017355  00000+0  11810-2 0  9996
2 48669  53.0528 295.6497 0000817 104.4025 255.7055 15.06403311101377
STARLINK-2763           
1 48670U 21044AJ  23080.91855749  .00022558  00000+0  15284-2 0  9990
2 48670  53.0524 296.8588 0001311  81.7862 278.3275 15.06401035100493
STARLINK-2745           
1 48671U 21044AK  23080.91486871  .00021313  00000+0  14452-2 0  9991
2 48671  53.0506 296.8773 0000999  92.8922 267.2181 15.06405296100497
STARLINK-2705           
1 48672U 21044AL  23080.91118445  .00021070  00000+0  14292-2 0  9993
2 48672  53.0529 296.8873 0000756 113.8388 246.2680 15.06399045100490
STARLINK-2711           
1 48673U 21044AM  23081.04019129  .00016203  00000+0  11044-2 0  9992
2 48673  53.0530 296.3095 0000455 129.7193 230.3836 15.06390622101412
STARLINK-2712           
1 48674U 21044AN  23080.90286851  .00009998  00000+0  68909-3 0  9991
2 48674  53.0508 296.9206 0001118  84.3402 275.7714 15.06403253100494
STARLINK-2737           
1 48675U 21044AP  23081.03282344  .00016828  00000+0  11461-2 0  9990
2 48675  53.0526 296.3436 0000970  87.8195 272.2905 15.06394092101356
STARLINK-2746           
1 48676U 21044AQ  23080.89644292  .00019368  00000+0  13157-2 0  9994
2 48676  53.0533 296.9556 0001247  87.6102 272.5029 15.06396570100495
STARLINK-2719           
1 48677U 21044AR  23080.89180993  .00017346  00000+0  11805-2 0  9990
2 48677  53.0519 296.9680 0001488  72.3457 287.7694 15.06400973100498
STARLINK-2615           
1 48678U 21044AS  23080.88905252  .00021926  00000+0  14869-2 0  9995
2 48678  53.0530 296.9856 0000935 123.5162 236.5917 15.06384381100499
STARLINK-2648           
1 48679U 21044AT  23080.88538520  .00022426  00000+0  15194-2 0  9994
2 48679  53.0527 297.0088 0001305  85.6790 274.4348 15.06406562100497
STARLINK-2649           
1 48680U 21044AU  23080.81532636  .00017357  00000+0  11818-2 0  9997
2 48680  53.0531 297.3190 0001153 125.8338 234.2758 15.06382303100481
STARLINK-2725           
1 48681U 21044AV  23080.81444955 -.00003040  00000+0 -18534-3 0  9993
2 48681  53.0524 267.5602 0000847  56.6619 303.4451 15.06391512100899
STARLINK-2743           
1 48682U 21044AW  23081.20976338  .00010266  00000+0  70715-3 0  9998
2 48682  53.0516 255.7152 0001464  74.7741 285.3410 15.06396828101937
STARLINK-2756           
1 48683U 21044AX  23080.23665506 -.00002568  00000+0 -15348-3 0  9992
2 48683  53.0507 259.9292 0001342  84.6053 275.5089 15.06413621100955
STARLINK-2741           
1 48684U 21044AY  23080.79004733  .00010104  00000+0  69589-3 0  9992
2 48684  53.0511 272.7921 0000987  86.2582 273.8520 15.06419190101726
STARLINK-2751           
1 48685U 21044AZ  23080.80427958 -.00000350  00000+0 -45880-5 0  9997
2 48685  53.0526 257.4128 0001125  94.0047 266.1071 15.06397248101040
STARLINK-2629           
1 48686U 21044BA  23080.79833287 -.00001055  00000+0 -51960-4 0  9990
2 48686  53.0518 262.6777 0001391  92.4550 267.6598 15.06399802100964
STARLINK-2627           
1 48687U 21044BB  23081.17149523  .00011446  00000+0  78591-3 0  9998
2 48687  53.0529 250.7198 0000695  64.7779 295.3282 15.06407844102004
STARLINK-2742           
1 48688U 21044BC  23080.44537135 -.00001041  00000+0 -50967-4 0  9998
2 48688  53.0531 253.9833 0001340  80.7217 279.3923 15.06402179101056
